[
  {
    "COMMENT": "GENERATED VIA SPACETRACK.ORG API",
    "ORIGINATOR": "JSPOC",
    "NORAD_CAT_ID": "40076",
    "OBJECT_NAME": "TDS 1",
    "OBJECT_TYPE": "PAYLOAD",
    "CLASSIFICATION_TYPE": "U",
    "INTLDES": "14037H",
    "EPOCH": "2014-08-07 11:14:43",
    "EPOCH_MICROSECONDS": "914048",
    "MEAN_MOTION": "14.804061",
    "ECCENTRICITY": "0.0005209",
    "INCLINATION": "98.3946",
    "RA_OF_ASC_NODE": "272.4347",
    "ARG_OF_PERICENTER": "173.8557",
    "MEAN_ANOMALY": "186.2719",
    "EPHEMERIS_TYPE": "0",
    "ELEMENT_SET_NO": "999",
    "REV_AT_EPOCH": "439",
    "BSTAR": "7.8528e-05",
    "MEAN_MOTION_DOT": "5.42e-06",
    "MEAN_MOTION_DDOT": "0",
    "FILE": "1726277",
    "TLE_LINE0": "0 TDS 1",
    "TLE_LINE1": "1 40076U 14037H   14219.46856382  .00000542  00000-0  78528-4 0  9996",
    "TLE_LINE2": "2 40076 098.3946 272.4347 0005209 173.8557 186.2719 14.80406100  4393",
    "OBJECT_ID": "2014-037H",
    "OBJECT_NUMBER": "40076",
    "SEMIMAJOR_AXIS": "7006.184",
    "PERIOD": "97.270",
    "APOGEE": "631.698",
    "PERIGEE": "624.399"
  },
  {
    "COMMENT": "GENERATED VIA SPACETRACK.ORG API",
    "ORIGINATOR": "JSPOC",
    "NORAD_CAT_ID": "40076",
    "OBJECT_NAME": "TDS 1",
    "OBJECT_TYPE": "PAYLOAD",
    "CLASSIFICATION_TYPE": "U",
    "INTLDES": "14037H",
    "EPOCH": "2014-08-07 19:21:22",
    "EPOCH_MICROSECONDS": "660128",
    "MEAN_MOTION": "14.80406424",
    "ECCENTRICITY": "0.0005177",
    "INCLINATION": "98.3946",
    "RA_OF_ASC_NODE": "272.7878",
    "ARG_OF_PERICENTER": "172.5285",
    "MEAN_ANOMALY": "187.5985",
    "EPHEMERIS_TYPE": "0",
    "ELEMENT_SET_NO": "999",
    "REV_AT_EPOCH": "444",
    "BSTAR": "7.8516e-05",
    "MEAN_MOTION_DOT": "5.42e-06",
    "MEAN_MOTION_DDOT": "0",
    "FILE": "1726432",
    "TLE_LINE0": "0 TDS 1",
    "TLE_LINE1": "1 40076U 14037H   14219.80651227  .00000542  00000-0  78516-4 0  9992",
    "TLE_LINE2": "2 40076 098.3946 272.7878 0005177 172.5285 187.5985 14.80406424  4447",
    "OBJECT_ID": "2014-037H",
    "OBJECT_NUMBER": "40076",
    "SEMIMAJOR_AXIS": "7006.183",
    "PERIOD": "97.270",
    "APOGEE": "631.675",
    "PERIGEE": "624.420"
  },
  {
    "COMMENT": "GENERATED VIA SPACETRACK.ORG API",
    "ORIGINATOR": "JSPOC",
    "NORAD_CAT_ID": "40076",
    "OBJECT_NAME": "TDS 1",
    "OBJECT_TYPE": "PAYLOAD",
    "CLASSIFICATION_TYPE": "U",
    "INTLDES": "14037H",
    "EPOCH": "2014-08-08 03:28:01",
    "EPOCH_MICROSECONDS": "431263",
    "MEAN_MOTION": "14.80406804",
    "ECCENTRICITY": "0.0005251",
    "INCLINATION": "98.3946",
    "RA_OF_ASC_NODE": "273.1414",
    "ARG_OF_PERICENTER": "171.5026",
    "MEAN_ANOMALY": "188.6283",
    "EPHEMERIS_TYPE": "0",
    "ELEMENT_SET_NO": "999",
    "REV_AT_EPOCH": "449",
    "BSTAR": "7.7685e-05",
    "MEAN_MOTION_DOT": "5.36e-06",
    "MEAN_MOTION_DDOT": "0",
    "FILE": "1726643",
    "TLE_LINE0": "0 TDS 1",
    "TLE_LINE1": "1 40076U 14037H   14220.14446101  .00000536  00000-0  77685-4 0  9993",
    "TLE_LINE2": "2 40076 098.3946 273.1414 0005251 171.5026 188.6283 14.80406804  4493",
    "OBJECT_ID": "2014-037H",
    "OBJECT_NUMBER": "40076",
    "SEMIMAJOR_AXIS": "7006.181",
    "PERIOD": "97.270",
    "APOGEE": "631.725",
    "PERIGEE": "624.367"
  },
  {
    "COMMENT": "GENERATED VIA SPACETRACK.ORG API",
    "ORIGINATOR": "JSPOC",
    "NORAD_CAT_ID": "40076",
    "OBJECT_NAME": "TDS 1",
    "OBJECT_TYPE": "PAYLOAD",
    "CLASSIFICATION_TYPE": "U",
    "INTLDES": "14037H",
    "EPOCH": "2014-08-08 09:57:20",
    "EPOCH_MICROSECONDS": "403072",
    "MEAN_MOTION": "14.80407054",
    "ECCENTRICITY": "0.0005273",
    "INCLINATION": "98.3947",
    "RA_OF_ASC_NODE": "273.4242",
    "ARG_OF_PERICENTER": "170.6878",
    "MEAN_ANOMALY": "189.4429",
    "EPHEMERIS_TYPE": "0",
    "ELEMENT_SET_NO": "999",
    "REV_AT_EPOCH": "453",
    "BSTAR": "7.6651e-05",
    "MEAN_MOTION_DOT": "5.28e-06",
    "MEAN_MOTION_DDOT": "0",
    "FILE": "1726774",
    "TLE_LINE0": "0 TDS 1",
    "TLE_LINE1": "1 40076U 14037H   14220.41481948  .00000528  00000-0  76651-4 0  9994",
    "TLE_LINE2": "2 40076 098.3947 273.4242 0005273 170.6878 189.4429 14.80407054  4539",
    "OBJECT_ID": "2014-037H",
    "OBJECT_NUMBER": "40076",
    "SEMIMAJOR_AXIS": "7006.181",
    "PERIOD": "97.270",
    "APOGEE": "631.740",
    "PERIGEE": "624.351"
  },
  {
    "COMMENT": "GENERATED VIA SPACETRACK.ORG API",
    "ORIGINATOR": "JSPOC",
    "NORAD_CAT_ID": "40076",
    "OBJECT_NAME": "TDS 1",
    "OBJECT_TYPE": "PAYLOAD",
    "CLASSIFICATION_TYPE": "U",
    "INTLDES": "14037H",
    "EPOCH": "2014-08-08 18:03:59",
    "EPOCH_MICROSECONDS": "133600",
    "MEAN_MOTION": "14.80407478",
    "ECCENTRICITY": "0.0005255",
    "INCLINATION": "98.3946",
    "RA_OF_ASC_NODE": "273.7773",
    "ARG_OF_PERICENTER": "169.8298",
    "MEAN_ANOMALY": "190.3015",
    "EPHEMERIS_TYPE": "0",
    "ELEMENT_SET_NO": "999",
    "REV_AT_EPOCH": "458",
    "BSTAR": "7.7818e-05",
    "MEAN_MOTION_DOT": "5.37e-06",
    "MEAN_MOTION_DDOT": "0",
    "FILE": "1726954",
    "TLE_LINE0": "0 TDS 1",
    "TLE_LINE1": "1 40076U 14037H   14220.75276775  .00000537  00000-0  77818-4 0  9997",
    "TLE_LINE2": "2 40076 098.3946 273.7773 0005255 169.8298 190.3015 14.80407478  4583",
    "OBJECT_ID": "2014-037H",
    "OBJECT_NUMBER": "40076",
    "SEMIMAJOR_AXIS": "7006.179",
    "PERIOD": "97.270",
    "APOGEE": "631.726",
    "PERIGEE": "624.362"
  },
  {
    "COMMENT": "GENERATED VIA SPACETRACK.ORG API",
    "ORIGINATOR": "JSPOC",
    "NORAD_CAT_ID": "40076",
    "OBJECT_NAME": "TDS 1",
    "OBJECT_TYPE": "PAYLOAD",
    "CLASSIFICATION_TYPE": "U",
    "INTLDES": "14037H",
    "EPOCH": "2014-08-09 03:47:57",
    "EPOCH_MICROSECONDS": "634079",
    "MEAN_MOTION": "14.8040773",
    "ECCENTRICITY": "0.0005266",
    "INCLINATION": "98.3945",
    "RA_OF_ASC_NODE": "274.2013",
    "ARG_OF_PERICENTER": "168.2799",
    "MEAN_ANOMALY": "191.8535",
    "EPHEMERIS_TYPE": "0",
    "ELEMENT_SET_NO": "999",
    "REV_AT_EPOCH": "464",
    "BSTAR": "7.4821e-05",
    "MEAN_MOTION_DOT": "5.14e-06",
    "MEAN_MOTION_DDOT": "0",
    "FILE": "1727118",
    "TLE_LINE0": "0 TDS 1",
    "TLE_LINE1": "1 40076U 14037H   14221.15830595  .00000514  00000-0  74821-4 0  9994",
    "TLE_LINE2": "2 40076 098.3945 274.2013 0005266 168.2799 191.8535 14.80407730  4647",
    "OBJECT_ID": "2014-037H",
    "OBJECT_NUMBER": "40076",
    "SEMIMAJOR_AXIS": "7006.178",
    "PERIOD": "97.270",
    "APOGEE": "631.733",
    "PERIGEE": "624.354"
  },
  {
    "COMMENT": "GENERATED VIA SPACETRACK.ORG API",
    "ORIGINATOR": "JSPOC",
    "NORAD_CAT_ID": "40076",
    "OBJECT_NAME": "TDS 1",
    "OBJECT_TYPE": "PAYLOAD",
    "CLASSIFICATION_TYPE": "U",
    "INTLDES": "14037H",
    "EPOCH": "2014-08-09 10:17:16",
    "EPOCH_MICROSECONDS": "608480",
    "MEAN_MOTION": "14.8040788",
    "ECCENTRICITY": "0.0005262",
    "INCLINATION": "98.3947",
    "RA_OF_ASC_NODE": "274.4843",
    "ARG_OF_PERICENTER": "167.5184",
    "MEAN_ANOMALY": "192.6149",
    "EPHEMERIS_TYPE": "0",
    "ELEMENT_SET_NO": "999",
    "REV_AT_EPOCH": "468",
    "BSTAR": "7.2746e-05",
    "MEAN_MOTION_DOT": "4.98e-06",
    "MEAN_MOTION_DDOT": "0",
    "FILE": "1727269",
    "TLE_LINE0": "0 TDS 1",
    "TLE_LINE1": "1 40076U 14037H   14221.42866445  .00000498  00000-0  72746-4 0  9992",
    "TLE_LINE2": "2 40076 098.3947 274.4843 0005262 167.5184 192.6149 14.80407880  4688",
    "OBJECT_ID": "2014-037H",
    "OBJECT_NUMBER": "40076",
    "SEMIMAJOR_AXIS": "7006.178",
    "PERIOD": "97.270",
    "APOGEE": "631.730",
    "PERIGEE": "624.356"
  },
  {
    "COMMENT": "GENERATED VIA SPACETRACK.ORG API",
    "ORIGINATOR": "JSPOC",
    "NORAD_CAT_ID": "40076",
    "OBJECT_NAME": "TDS 1",
    "OBJECT_TYPE": "PAYLOAD",
    "CLASSIFICATION_TYPE": "U",
    "INTLDES": "14037H",
    "EPOCH": "2014-08-09 18:23:55",
    "EPOCH_MICROSECONDS": "330367",
    "MEAN_MOTION": "14.80408341",
    "ECCENTRICITY": "0.0005296",
    "INCLINATION": "98.3947",
    "RA_OF_ASC_NODE": "274.8376",
    "ARG_OF_PERICENTER": "166.5393",
    "MEAN_ANOMALY": "193.5959",
    "EPHEMERIS_TYPE": "0",
    "ELEMENT_SET_NO": "999",
    "REV_AT_EPOCH": "473",
    "BSTAR": "7.4911e-05",
    "MEAN_MOTION_DOT": "5.15e-06",
    "MEAN_MOTION_DDOT": "0",
    "FILE": "1727423",
    "TLE_LINE0": "0 TDS 1",
    "TLE_LINE1": "1 40076U 14037H   14221.76661262  .00000515  00000-0  74911-4 0  9995",
    "TLE_LINE2": "2 40076 098.3947 274.8376 0005296 166.5393 193.5959 14.80408341  4739",
    "OBJECT_ID": "2014-037H",
    "OBJECT_NUMBER": "40076",
    "SEMIMAJOR_AXIS": "7006.176",
    "PERIOD": "97.270",
    "APOGEE": "631.752",
    "PERIGEE": "624.331"
  },
  {
    "COMMENT": "GENERATED VIA SPACETRACK.ORG API",
    "ORIGINATOR": "JSPOC",
    "NORAD_CAT_ID": "40076",
    "OBJECT_NAME": "TDS 1",
    "OBJECT_TYPE": "PAYLOAD",
    "CLASSIFICATION_TYPE": "U",
    "INTLDES": "14037H",
    "EPOCH": "2014-08-10 02:30:34",
    "EPOCH_MICROSECONDS": "43615",
    "MEAN_MOTION": "14.80408696",
    "ECCENTRICITY": "0.0005315",
    "INCLINATION": "98.3947",
    "RA_OF_ASC_NODE": "275.1912",
    "ARG_OF_PERICENTER": "165.4824",
    "MEAN_ANOMALY": "194.6548",
    "EPHEMERIS_TYPE": "0",
    "ELEMENT_SET_NO": "999",
    "REV_AT_EPOCH": "478",
    "BSTAR": "7.4194e-05",
    "MEAN_MOTION_DOT": "5.09e-06",
    "MEAN_MOTION_DDOT": "0",
    "FILE": "1727614",
    "TLE_LINE0": "0 TDS 1",
    "TLE_LINE1": "1 40076U 14037H   14222.10456069  .00000509  00000-0  74194-4 0  9997",
    "TLE_LINE2": "2 40076 098.3947 275.1912 0005315 165.4824 194.6548 14.80408696  4782",
    "OBJECT_ID": "2014-037H",
    "OBJECT_NUMBER": "40076",
    "SEMIMAJOR_AXIS": "7006.175",
    "PERIOD": "97.270",
    "APOGEE": "631.764",
    "PERIGEE": "624.317"
  }
]
